country,name,address,sector,lat,lng
Germany,Hanes Global Supply Chain Germany GmbH,"Chonlinder Stasse 1-11,86956 SCHONGAU",Apparel,47.8161231,10.8927015
France,Hanes France SAS TMD,Boulevard Giberstein - 71400 AUTUN,Apparel,46.952314,4.283505
France,Hanes France SAS CDF,4 rue Nicephore Niepce - Autun Cedex,Apparel,46.9698299,4.304344299999999
Romania,Rosko Textil (Arad),"Parc Industrial UTA,Arad",Apparel,46.1937589,21.3107276
Indonesia,PT Pacific Brands,"Kawasan Industri Jababeka XIIB Block W No 39,Bekasi 17530",Apparel,-6.276885,107.13896
Dominican Republic,Bonao - Dos Rios,"Autopista Duarte KM 80,Bonao,Dominican Republic",Apparel,18.9432283,-70.3935561
Mexico,Rinplay S. DE R.L. DE C.V. (Huichapan),"KM 202.5 Carr. Mx,Cd. Juarez,Huichapan,Hidalgo",Apparel,20.3786677,-99.6508401
Honduras,Hanes Ink,"800 Mtrs Rd to LaJutosa,Choloma,Cortes",Apparel,15.6497514,-87.997164
Honduras,Hanes Choloma Cutting,"Carretera SPS Pto Cortes,Choloma,Cortes - Bldg 1",Apparel,15.825072,-87.92857769999999
United States,Clarksville Hosiery,"1904 W. Clark Rd.,Clarksville,AR",Apparel,35.4618826,-93.4869463
El Salvador,Bonaventure,"Km.26.5 Carretera a Sonsonate,Colon,La Libertad",Apparel,13.9749219,-89.5838771
Honduras,Confecciones Del Valle Cutting,"Buena Vista -Edif #E-1 & E-2 - Villanueva,Cortes",Apparel,15.3175618,-87.99073349999999
Honduras,Vanixx Molding Bldg #TU 1-2,"Zip Buena Vista -Edif #TU 1-2 - Villanueva,Cortes",Apparel,15.3501915,-87.9867603
Romania,Rosko Textil (Curtici),"Zona Libera,Curtici,Arad",Apparel,46.1713996,21.2743827
Vietnam,Hung Yen North,"Yen Lich Village,Dan Tien Commune,Hung Yen",Apparel,20.8460342,106.0096511
Dominican Republic,San Isidro,"Zona Franca San Isidro,Dominican Republic",Apparel,18.4991668,-69.7917495
South Africa,DBA Apparel (Pty) Ltd.,"101 Lawley Street,Durban",Apparel,-29.935674,30.980522
Honduras,Confecciones Del Valle Sewing,"Zip Buena Vista,Edif #CD 1-2,Villanueva,Cortes",Apparel,15.3501915,-87.9867603
Honduras,Jasper,"Zoli Honduras,Edificio #11,Choloma,Cortes",Apparel,15.5829375,-87.9528125
Honduras,Jogbra,"ZIP Buena Vista,Edificio B3,Villanueva,Cortes",Apparel,15.3501915,-87.9867603
Honduras,Hanes Choloma Cutting,"Zip Choloma,Edificio DF,Choloma,Cortes",Apparel,15.603226,-87.9573723
Honduras,Hanes Choloma Sewing 2,"Zip Choloma,Edificio G,Choloma,Cortes",Apparel,15.603226,-87.9573723
El Salvador,Jiboa - El Pedregal,"Km. 46 12 Car a La Herradura,El Rosario,La Pax",Apparel,13.4926528,-89.02510219999999
El Salvador,Confecciones - El Pedregal 4c,"Km. 46 12 Car a La Herradura,El Rosario,La Pax",Apparel,13.4926528,-89.02510219999999
Vietnam,Hung Yen South,"Ching Nghia Commune,Kim Dong District,Hung Yen",Apparel,20.7586218,106.0610787
Brazil,Cotia,"Travessa Macapa 120,Km 33 Rod. raposo Tavares,San Paulo,Brazil",Apparel,-23.573861,-46.7139608
Puerto Rico,Humacao,"Carr #3,KM 83.6,Humacao",Apparel,18.1452878,-65.7999802
El Salvador,ES Textiles,"Km 34 Carretera a San Juan Opico,La Libertad",Apparel,13.830915,-89.3571125
United States,GFSI - Lenexa (Commerce Pkwy),"9700 Commerce Parkway,Lenexa,KS",Apparel,38.9533222,-94.766408
Mexico,GFSI Southwest S DE Rl DE CV,"PRIVADA MARTEL SN MANZANA 4,LOTE 7 & 8,Reynosa",Apparel,26.0508406,-98.29789509999999
Vietnam,Phu Bai,An Qiu Xin Tian Heng Computerized  Embroidery Co. Ltd.,Apparel,14.058324,108.277199
Philippines,PIPLAY - Binan Laguna Plant,"Laguna Int'l Industrial Park,Mamplasan,Biban,Laguna",Apparel,14.2925475,121.0834976
United States,GTM Sportwear,"520 McCall Rd.,Manhattan,KS",Apparel,39.1879912,-96.5498677
United States,Mount Airy Sock,"643 West Pine St.,Mt. Airy,NC",Apparel|Mining,36.497605,-80.6169172
Argentina,San Juan - Indumentaria Andina,"Buenos Aires 1364,San Juan City,Argentina",Apparel,-34.6036844,-58.3815591
El Salvador,ES Sock,"Km 34 Carretera,San Juan Opico,La Libertad",Apparel,13.8283931,-89.3557981
Argentina,Buenos Aires - Alsina 1771,"Alsina 1771,San Martin,Buenos Aires,Argentina",Apparel,-34.5837832,-58.53996950000001
Dominican Republic,Bali D,"ZONA FRANCA INDUSTRIAL,San Pedro de Marcoris",Apparel,18.4525332,-69.2892434
El Salvador,ES Sew,"Sam LI-KM 31.5,Santa Ana,La Libertad,San Juan Opico",Apparel,13.8758656,-89.3582599
Dominican Republic,Santo Domingo - Las Americas,"Autopista Las Americas KM 22,Santo Domingo,Dominican Republic",Apparel,18.4577389,-69.7086568
United States,Woolwine,"138 Elamsville Rd.,Stuart,VA",Apparel,36.7749261,-80.2631256
Romania,Universal Zalau Plant,"77 Blvd. Mihai Viteazu,Zalau",Apparel,47.20112899999999,23.0533773
